{
    "links": {
        "self": "http://www.neowsapp.com/rest/v1/neo/3428703?api_key=iIulBulltgU6a56xZRHN4H3l9WmuAYTsLGpBGhQ2"
    },
    "id": "3428703",
    "neo_reference_id": "3428703",
    "name": "(2008 TJ)",
    "designation": "2008 TJ",
    "nasa_jpl_url": "http://ssd.jpl.nasa.gov/sbdb.cgi?sstr=3428703",
    "absolute_magnitude_h": 26.7,
    "estimated_diameter": {
        "kilometers": {
            "estimated_diameter_min": 0.0121494041,
            "estimated_diameter_max": 0.0271668934
        },
        "meters": {
            "estimated_diameter_min": 12.14940408,
            "estimated_diameter_max": 27.1668934089
        },
        "miles": {
            "estimated_diameter_min": 0.0075492874,
            "estimated_diameter_max": 0.0168807197
        },
        "feet": {
            "estimated_diameter_min": 39.8602508817,
            "estimated_diameter_max": 89.1302305717
        }
    },
    "is_potentially_hazardous_asteroid": false,
    "close_approach_data": [
        {
            "close_approach_date": "2008-09-13",
            "close_approach_date_full": "2008-Sep-13 19:12",
            "epoch_date_close_approach": 1221333120000,
            "relative_velocity": {
                "kilometers_per_second": "4.0733856213",
                "kilometers_per_hour": "14664.1882366796",
                "miles_per_hour": "9111.7562962857"
            },
            "miss_distance": {
                "astronomical": "0.0628806588",
                "lunar": "24.4605762732",
                "kilometers": "9406812.620676756",
                "miles": "5845122.3205649928"
            },
            "orbiting_body": "Earth"
        }
    ],
    "orbital_data": {
        "orbit_id": "7",
        "orbit_determination_date": "2017-04-06 09:02:44",
        "first_observation_date": "2008-10-01",
        "last_observation_date": "2008-10-02",
        "data_arc_in_days": 1,
        "observations_used": 21,
        "orbit_uncertainty": "9",
        "minimum_orbit_intersection": ".0620246",
        "jupiter_tisserand_invariant": "4.383",
        "epoch_osculation": "2454741.5",
        "eccentricity": ".3146443108010945",
        "semi_major_axis": "1.554609896689635",
        "inclination": "3.480728287698194",
        "ascending_node_longitude": "7.381389540745758",
        "orbital_period": "707.9956168845434",
        "perihelion_distance": "1.065460737181164",
        "perihelion_argument": "341.1069366156075",
        "aphelion_distance": "2.043759056198106",
        "perihelion_time": "2454721.089297717101",
        "mean_anomaly": "10.37838744564134",
        "mean_motion": ".5084777241759494",
        "equinox": "J2000",
        "orbit_class": {
            "orbit_class_type": "AMO",
            "orbit_class_description": "Near-Earth asteroid orbits similar to that of 1221 Amor",
            "orbit_class_range": "1.017 AU < q (perihelion) < 1.3 AU"
        }
    },
    "is_sentry_object": false
}